$$SOE
2460714.500000000, A.D. 2025-Feb-08 00:00:00.0000, 6.262908044195210E+07, -3.836375610536384E+08, 2.582854241135240E+06,
2460721.500000000, A.D. 2025-Feb-15 00:00:00.0000, 7.440871414460582E+07, -3.812125344560201E+08, 2.597917959261298E+06,
2460728.500000000, A.D. 2025-Feb-22 00:00:00.0000, 8.612670884153415E+07, -3.784717913418923E+08, 2.610829821377605E+06,
2460735.500000000, A.D. 2025-Mar-01 00:00:00.0000, 9.777321785185798E+07, -3.754169743236175E+08, 2.621574635203093E+06,
2460742.500000000, A.D. 2025-Mar-08 00:00:00.0000, 1.093384478471721E+08, -3.720501178997463E+08, 2.630139664963648E+06,
2460749.500000000, A.D. 2025-Mar-15 00:00:00.0000, 1.208126789802662E+08, -3.683736446013262E+08, 2.636514826278806E+06,
2460756.500000000, A.D. 2025-Mar-22 00:00:00.0000, 1.321862826934987E+08, -3.643903612231691E+08, 2.640692960808098E+06,
2460763.500000000, A.D. 2025-Mar-29 00:00:00.0000, 1.434497406787508E+08, -3.601034559883453E+08, 2.642669793026343E+06,
2460770.500000000, A.D. 2025-Apr-05 00:00:00.0000, 1.545936652101620E+08, -3.555164935266216E+08, 2.642443795339718E+06,
2460777.500000000, A.D. 2025-Apr-12 00:00:00.0000, 1.656088188208010E+08, -3.506334075922107E+08, 2.640016146425113E+06,
2460784.500000000, A.D. 2025-Apr-19 00:00:00.0000, 1.764861330359288E+08, -3.454584924403232E+08, 2.635390727704778E+06,
2460791.500000000, A.D. 2025-Apr-26 00:00:00.0000, 1.872167263385985E+08, -3.399963931126989E+08, 2.628574116283327E+06,
2460798.500000000, A.D. 2025-May-03 00:00:00.0000, 1.977919213903753E+08, -3.342520946689178E+08, 2.619575565432623E+06,
2460805.500000000, A.D. 2025-May-10 00:00:00.0000, 2.082032614505696E+08, -3.282309104187070E+08, 2.608406970699444E+06,
2460812.500000000, A.D. 2025-May-17 00:00:00.0000, 2.184425259524316E+08, -3.219384692670123E+08, 2.595082814919800E+06,
2460819.500000000, A.D. 2025-May-24 00:00:00.0000, 2.285017453403972E+08, -3.153807023039403E+08, 2.579620071931243E+06,
2460826.500000000, A.D. 2025-May-31 00:00:00.0000, 2.383732155248004E+08, -3.085638284138297E+08, 2.562038056666121E+06,
2460833.500000000, A.D. 2025-Jun-07 00:00:00.0000, 2.480495114984092E+08, -3.014943377899393E+08, 2.542358357652962E+06,
2460840.500000000, A.D. 2025-Jun-14 00:00:00.0000, 2.575234977011763E+08, -2.941789741141801E+08, 2.520605014770135E+06,
2460847.500000000, A.D. 2025-Jun-21 00:00:00.0000, 2.667883363093642E+08, -2.866247187633036E+08, 2.496804563234165E+06,
2460854.500000000, A.D. 2025-Jun-28 00:00:00.0000, 2.758374965502294E+08, -2.788387753673102E+08, 2.470985801067635E+06,
2460861.500000000, A.D. 2025-Jul-05 00:00:00.0000, 2.846647635122720E+08, -2.708285526587468E+08, 2.443179595856741E+06,
2460868.500000000, A.D. 2025-Jul-12 00:00:00.0000, 2.932642452567305E+08, -2.626016465170321E+08, 2.413418775098279E+06,
2460875.500000000, A.D. 2025-Jul-19 00:00:00.0000, 3.016303784238456E+08, -2.541658218824516E+08, 2.381738036815673E+06,
2460882.500000000, A.D. 2025-Jul-26 00:00:00.0000, 3.097579325539389E+08, -2.455289946938841E+08, 2.348173857620239E+06,
2460889.500000000, A.D. 2025-Aug-02 00:00:00.0000, 3.176420132049574E+08, -2.366992139219131E+08, 2.312764394910976E+06,
2460896.500000000, A.D. 2025-Aug-09 00:00:00.0000, 3.252780639124046E+08, -2.276846437999687E+08, 2.275549380620539E+06,
2460903.500000000, A.D. 2025-Aug-16 00:00:00.0000, 3.326618670970736E+08, -2.184935463985469E+08, 2.236569994836658E+06,
2460910.500000000, A.D. 2025-Aug-23 00:00:00.0000, 3.397895442483433E+08, -2.091342646007678E+08, 2.195868694300130E+06,
2460917.500000000, A.D. 2025-Aug-30 00:00:00.0000, 3.466575557557220E+08, -1.996152048342252E+08, 2.153489024760082E+06,
2460924.500000000, A.D. 2025-Sep-06 00:00:00.0000, 3.532626990219020E+08, -1.899448186249569E+08, 2.109475630137011E+06,
2460931.500000000, A.D. 2025-Sep-13 00:00:00.0000, 3.596021032405216E+08, -1.801315855180867E+08, 2.063874409664191E+06,
2460938.500000000, A.D. 2025-Sep-20 00:00:00.0000, 3.656732241671016E+08, -1.701839990627331E+08, 2.016732388822138E+06,
2460945.500000000, A.D. 2025-Sep-27 00:00:00.0000, 3.714738400016471E+08, -1.601105527959980E+08, 1.968097461817510E+06,
2460952.500000000, A.D. 2025-Oct-04 00:00:00.0000, 3.770020464296848E+08, -1.499197257289125E+08, 1.918018235352285E+06,
2460959.500000000, A.D. 2025-Oct-11 00:00:00.0000, 3.822562505119792E+08, -1.396199683138421E+08, 1.866543931466863E+06,
2460966.500000000, A.D. 2025-Oct-18 00:00:00.0000, 3.872351637702004E+08, -1.292196891975723E+08, 1.813724301423900E+06,
2460973.500000000, A.D. 2025-Oct-25 00:00:00.0000, 3.919377946714180E+08, -1.187272427722387E+08, 1.759609539021179E+06,
2460980.500000000, A.D. 2025-Nov-01 00:00:00.0000, 3.963634406137696E+08, -1.081509175256190E+08, 1.704250191173419E+06,
2460987.500000000, A.D. 2025-Nov-08 00:00:00.0000, 4.005116795098312E+08, -9.749892523367770E+07, 1.647697060108945E+06,
2460994.500000000, A.D. 2025-Nov-15 00:00:00.0000, 4.043823611754403E+08, -8.677939106028138E+07, 1.590001078734316E+06,
2461001.500000000, A.D. 2025-Nov-22 00:00:00.0000, 4.079755989835314E+08, -7.600034434453082E+07, 1.531213139958274E+06,
2461008.500000000, A.D. 2025-Nov-29 00:00:00.0000, 4.112917616858747E+08, -6.516970893508983E+07, 1.471383986739393E+06,
2461015.500000000, A.D. 2025-Dec-06 00:00:00.0000, 4.143314631828539E+08, -5.429529319939992E+07, 1.410564360916525E+06,
2461022.500000000, A.D. 2025-Dec-13 00:00:00.0000, 4.170955507283210E+08, -4.338478306912117E+07, 1.348805095539263E+06,
2461029.500000000, A.D. 2025-Dec-20 00:00:00.0000, 4.195850951090657E+08, -3.244573708453451E+07, 1.286156913526682E+06,
2461036.500000000, A.D. 2025-Dec-27 00:00:00.0000, 4.218013817697126E+08, -2.148558082766401E+07, 1.222670242802376E+06,
2461043.500000000, A.D. 2026-Jan-03 00:00:00.0000, 4.237459014672750E+08, -1.051160133874531E+07, 1.158395131506150E+06,
2461050.500000000, A.D. 2026-Jan-10 00:00:00.0000, 4.254203406054183E+08, 4.690578277935507E+05, 1.093381197788050E+06,
2461057.500000000, A.D. 2026-Jan-17 00:00:00.0000, 4.268265715178555E+08, 1.144940084099914E+07, 1.027677585412305E+06,
2461064.500000000, A.D. 2026-Jan-24 00:00:00.0000, 4.279666428125558E+08, 2.242258317377537E+07, 9.613329199351985E+05,
2461071.500000000, A.D. 2026-Jan-31 00:00:00.0000, 4.288427698311141E+08, 3.338191454616874E+07, 8.943952627723683E+05,
2461078.500000000, A.D. 2026-Feb-07 00:00:00.0000, 4.294573253129528E+08, 4.432086120230270E+07, 8.269120528881513E+05,
2461085.500000000, A.D. 2026-Feb-14 00:00:00.0000, 4.298128305421901E+08, 5.523304753334494E+07, 7.589300115788206E+05,
2461092.500000000, A.D. 2026-Feb-21 00:00:00.0000, 4.299119473843656E+08, 6.611225765089383E+07, 6.904950217147321E+05,
2461099.500000000, A.D. 2026-Feb-28 00:00:00.0000, 4.297574701437570E+08, 7.695243809336036E+07, 6.216521750954837E+05,
2461106.500000000, A.D. 2026-Mar-07 00:00:00.0000, 4.293523151988610E+08, 8.774769974502483E+07, 5.524460174821839E+05,
2461113.500000000, A.D. 2026-Mar-14 00:00:00.0000, 4.286995112050641E+08, 9.849231666224596E+07, 4.829205458326340E+05,
2461120.500000000, A.D. 2026-Mar-21 00:00:00.0000, 4.278021916553428E+08, 1.091807247330187E+08, 4.131190307670683E+05,
2461127.500000000, A.D. 2026-Mar-28 00:00:00.0000, 4.266635877979873E+08, 1.198075212282617E+08, 3.430839327770099E+05,
2461134.500000000, A.D. 2026-Apr-04 00:00:00.0000, 4.252870213170140E+08, 1.303674643072284E+08, 2.728568889195025E+05,
2461141.500000000, A.D. 2026-Apr-11 00:00:00.0000, 4.236758970568850E+08, 1.408554721426478E+08, 2.024787156540155E+05,
2461148.500000000, A.D. 2026-Apr-18 00:00:00.0000, 4.218336959557077E+08, 1.512666216826998E+08, 1.319894127468765E+05,
2461155.500000000, A.D. 2026-Apr-25 00:00:00.0000, 4.197639682350096E+08, 1.615961470873496E+08, 6.142816525708139E+04,
2461162.500000000, A.D. 2026-May-02 00:00:00.0000, 4.174703268771408E+08, 1.718394378316562E+08, -9.166661637850106E+03,
2461169.500000000, A.D. 2026-May-09 00:00:00.0000, 4.149564415141193E+08, 1.819920364313957E+08, -7.975755183581263E+04,
2461176.500000000, A.D. 2026-May-16 00:00:00.0000, 4.122260331040881E+08, 1.920496359495495E+08, -1.503079149959236E+05,
2461183.500000000, A.D. 2026-May-23 00:00:00.0000, 4.092828694430033E+08, 2.020080783244606E+08, -2.207821321484447E+05,
2461190.500000000, A.D. 2026-May-30 00:00:00.0000, 4.061307594268153E+08, 2.118633538582613E+08, -2.911453535116762E+05,
2461197.500000000, A.D. 2026-Jun-06 00:00:00.0000, 4.027735457435195E+08, 2.216115986117770E+08, -3.613632868554145E+05,
2461204.500000000, A.D. 2026-Jun-13 00:00:00.0000, 3.992150996578485E+08, 2.312490899206726E+08, -4.314022967745960E+05,
2461211.500000000, A.D. 2026-Jun-20 00:00:00.0000, 3.954593173803144E+08, 2.407722429729123E+08, -5.012295302677453E+05,
2461218.500000000, A.D. 2026-Jun-27 00:00:00.0000, 3.915101163145855E+08, 2.501776081221014E+08, -5.708129409344494E+05,
2461225.500000000, A.D. 2026-Jul-04 00:00:00.0000, 3.873714311761044E+08, 2.594618681755346E+08, -6.401212754310519E+05,
2461232.500000000, A.D. 2026-Jul-11 00:00:00.0000, 3.830472102287397E+08, 2.686218355375926E+08, -7.091240566057414E+05,
2461239.500000000, A.D. 2026-Jul-18 00:00:00.0000, 3.785414117247223E+08, 2.776544492457665E+08, -7.777915700606853E+05,
2461246.500000000, A.D. 2026-Jul-25 00:00:00.0000, 3.738580005645990E+08, 2.865567719127070E+08, -8.460948564648479E+05,
2461253.500000000, A.D. 2026-Aug-01 00:00:00.0000, 3.690009452175111E+08, 2.953259865361202E+08, -9.140057182161659E+05,
2461260.500000000, A.D. 2026-Aug-08 00:00:00.0000, 3.639742151090729E+08, 3.039593931499091E+08, -9.814967633038163E+05,
2461267.500000000, A.D. 2026-Aug-15 00:00:00.0000, 3.587817788845717E+08, 3.124544057750609E+08, -1.048541487867162E+06,
2461274.500000000, A.D. 2026-Aug-22 00:00:00.0000, 3.534276027779614E+08, 3.208085508977261E+08, -1.115114228081658E+06,
2461281.500000000, A.D. 2026-Aug-29 00:00:00.0000, 3.479156467875121E+08, 3.290194661084647E+08, -1.181189883540541E+06,
$$EOE